ZHUHAI-1 02 (CAS-4B)    
1 42759U 17034B   23125.08732140  .00009734  00000+0  49871-3 0  9994
2 42759  43.0191 355.1518 0010533 191.7972 295.6817 15.16675075325093
ZHUHAI-1 01 (CAS-4A)    
1 42761U 17034D   23125.10551537  .00008251  00000+0  42404-3 0  9997
2 42761  43.0179 353.5881 0011017 193.1439 303.1702 15.16721946325108
MAX VALIER SAT          
1 42778U 17036P   23124.83193384  .00022033  00000+0  61203-3 0  9990
2 42778  97.1604 160.7477 0006503 245.7607 114.2959 15.36871717326068
RADFXSAT (FOX-1B)       
1 43017U 17073E   23125.55619098  .00005865  00000+0  41657-3 0  9998
2 43017  97.6363  11.5874 0234394 209.6591 149.1164 14.85526722294850
FOX-1D (AO-92)          
1 43137U 18004AC  23125.18309391  .00033486  00000+0  75552-3 0  9998
2 43137  97.3302 203.9990 0004447 286.9410  73.1350 15.43148713295669
DIWATA-2B               
1 43678U 18084H   23125.37295425  .00002192  00000+0  21504-3 0  9997
2 43678  98.0150 268.4993 0008399 308.4851  51.5597 14.93284668245871
ES'HAIL 2               
1 43700U 18090A   23125.08382928  .00000160  00000+0  00000+0 0  9990
2 43700   0.0135 273.5647 0001408 149.4616 215.6776  1.00268714 16496
FOX-1CLIFF (AO-95)      
1 43770U 18099N   23125.12144301  .00005822  00000+0  47968-3 0  9990
2 43770  97.5757 187.8195 0010160 272.2995  87.7065 14.99398815241159
ITASAT 1                
1 43786U 18099AE  23125.11502530  .00004563  00000+0  37951-3 0  9990
2 43786  97.5772 188.8496 0012229 262.1457  97.8378 14.99127802241196
JY1SAT (JO-97)          
1 43803U 18099AX  23125.17215061  .00005678  00000+0  45662-3 0  9992
2 43803  97.5707 188.8622 0011641 247.3250 112.6743 15.00326324241249
UWE-4                   
1 43880U 18111E   23125.25276137  .00006010  00000+0  46563-3 0  9994
2 43880  97.6409  31.1184 0015073 325.9619  34.0637 15.01702729235927
NEXUS (FO-99)           
1 43937U 19003F   23124.86567412  .00052137  00000+0  97605-3 0  9997
2 43937  97.0909 152.7339 0015798  81.5354 278.7687 15.48394884239337
JAISAT-1                
1 44419U 19038F   23125.50034452  .00023276  00000+0  84222-3 0  9999
2 44419  97.6725 105.8694 0018173  92.9898 267.3421 15.28267882212018
DUCHIFAT-3              
1 44854U 19089C   23125.00207345  .00008040  00000+0  55156-3 0  9992
2 44854  36.9646 349.2506 0010710 323.2337 175.1691 15.05569081186322
CAS-6 (TIANQIN 1)       
1 44881U 19093C   23125.23467211  .00001147  00000+0  14945-3 0  9994
2 44881  97.8616 204.4170 0013921 213.5957 146.4375 14.82434452182435
RS-44 & BREEZE-KM R/B   
1 44909U 19096E   23124.75307800  .00000023  00000+0  54055-4 0  9990
2 44909  82.5259  16.8083 0216393 288.6661  69.1059 12.79720296156609
BY70-2                  
1 45857U 20042B   23125.28910357  .00018894  00000+0  20157-2 0  9991
2 45857  97.9257 205.0924 0011122 145.0517 215.1402 14.88838509153156
SALSAT                  
1 46495U 20068K   23124.84457062  .00004697  00000+0  31453-3 0  9996
2 46495  97.7680  72.4107 0013578 267.3082  92.6591 15.07341887142542
RADFXSAT-2 (AO-109)     
1 47311U 21002C   23125.27046997  .00026418  00000+0  72715-3 0  9993
2 47311  60.6820 223.2687 0020549 152.0152 208.2051 15.36894564127690
UVSQ-SAT                
1 47438U 21006AB  23124.88640401  .00014809  00000+0  62983-3 0  9990
2 47438  97.3886 182.6486 0009235 225.1207 134.9280 15.23080900126051
DIY-1 (ARDUIQUBE)       
1 47963U 21022AH  23124.72331051  .00136433  00000+0  26919-2 0  9998
2 47963  97.5022  31.3556 0013987  97.9723 262.3114 15.46569696115849
XW-3 (CAS-9)            
1 50466U 21131B   23125.33441347  .00000679  00000+0  23496-3 0  9999
2 50466  98.5516 207.0141 0003054 263.5845  96.4995 14.38862189 71197
TEVEL-3                 
1 50988U 22002E   23125.32468028  .00018670  00000+0  78404-3 0  9999
2 50988  97.4367 192.6268 0007893  37.9596  27.7462 15.23471869 72236
TEVEL-8                 
1 50989U 22002F   23125.48373865  .00018658  00000+0  78482-3 0  9993
2 50989  97.4380 192.8390 0008162  35.1718  89.5097 15.23415164 72254
TEVEL-5                 
1 50998U 22002Q   23125.29201194  .00019498  00000+0  80012-3 0  9992
2 50998  97.4359 192.9302 0009090  30.0528  38.2674 15.24232380 72258
TEVEL-6                 
1 50999U 22002R   23125.29125374  .00019431  00000+0  79739-3 0  9999
2 50999  97.4357 192.9249 0008994  30.4916  41.7658 15.24234413 72254
TEVEL-1                 
1 51013U 22002AF  23125.26896686  .00018670  00000+0  78507-3 0  9991
2 51013  97.4370 192.5209 0007850  37.5085  35.9371 15.23427677 72223
TEVEL-7                 
1 51062U 22002CG  23125.14415436  .00018797  00000+0  79059-3 0  9995
2 51062  97.4376 192.4766 0008152  35.3199  20.2673 15.23416450 72205
TEVEL-4                 
1 51063U 22002CH  23125.21876766  .00018723  00000+0  78849-3 0  9996
2 51063  97.4376 192.5381 0008047  35.7458  42.9256 15.23374701 72216
TEVEL-2                 
1 51069U 22002CP  23125.40440870  .00018639  00000+0  78268-3 0  9997
2 51069  97.4364 192.6799 0007911  36.5979  95.9529 15.23474588 72247
GREENCUBE               
1 53106U 22080B   23121.98189554 -.00000003  00000+0  00000+0 0  9997
2 53106  70.1683 335.7822 0008237 195.3909 164.6501  6.42557335 18785
RS29S (SXC3-2110 CYCLO*)
1 53373U 22096D   23125.40524007  .00029868  00000+0  84150-3 0  9998
2 53373  97.4177  31.2833 0002401  79.6056  31.6897 15.36390595 41115
RS32S (SXC3-212 MONITO*)
1 53374U 22096E   23125.42100928  .00027222  00000+0  78369-3 0  9990
2 53374  97.4163  31.2394 0001771  71.8755  55.5118 15.35734449 41112
RS34S (SXC3-218 KUZBAS*)
1 53375U 22096F   23125.38189715  .00022875  00000+0  69278-3 0  9995
2 53375  97.4177  30.9926 0001704  77.6035 348.9073 15.34170442 41098
RS23S (SXC3-21 UTMN)    
1 53376U 22096G   23125.36733277  .00023403  00000+0  69814-3 0  9996
2 53376  97.4181  31.0403 0001841  76.6455  67.8067 15.34644272 41090
RS28S (SXC3-214 MIET-A*)
1 53377U 22096H   23125.52394852  .00021209  00000+0  64661-3 0  9994
2 53377  97.4181  31.1386 0001530  83.9280  42.9421 15.33975589 41112
RS26S (KAI-1)           
1 53378U 22096J   23125.45429250  .00017620  00000+0  55908-3 0  9994
2 53378  97.4195  30.9197 0001257  82.4270  10.1248 15.32740333 41091
RS19S (SXC3-219 ISOI)   
1 53381U 22096M   23125.36504081  .00021128  00000+0  62936-3 0  9991
2 53381  97.4177  31.1886 0002963 168.9613 330.0635 15.34709556 41109
RS21S (CUBESX-HSE-2)    
1 53383U 22096P   23125.54149512  .00022824  00000+0  67312-3 0  9994
2 53383  97.4181  31.4147 0003161 171.9685 313.6661 15.35007572 41132
RS30S (SXC3-217 SIREN)  
1 53384U 22096Q   23125.33943228  .00018550  00000+0  56875-3 0  9991
2 53384  97.4191  31.0821 0003228 174.4480 310.0829 15.33820893 41093
RS20S (GEOSCAN-EDELVEIS)
1 53385U 22096R   23125.54173183  .00030348  00000+0  81583-3 0  9993
2 53385  97.4170  31.8456 0003501 165.4497 296.9824 15.37844603 41192
RS33S (SXC3-215 VIZARD) 
1 53386U 22096S   23125.42221854  .00040003  00000+0  97753-3 0  9995
2 53386  97.4173  32.1664 0004191 166.1466 323.9642 15.40708740 41195
CAS-5A (FO-118)         
1 54684U 22167C   23125.38404748  .00012923  00000+0  73214-3 0  9992
2 54684  97.5555 263.3023 0015054 122.1973 322.7063 15.13042888 22203
